JILIN-1 GAOFEN 03D51    
1 54252U 22155B   26197.85628081  .00036719  00000+0  37465-3 0  9999
2 54252  97.6265 345.0139 0004488 225.5152 134.5740 15.64993908204381
JILIN-1 GAOFEN 03D53    
1 54253U 22155C   26197.84589211  .00020676  00000+0  31526-3 0  9997
2 54253  97.6256 340.1765 0004961 243.3431 116.7315 15.54493400204096
JILIN-1 GAOFEN 03D52    
1 54255U 22155E   26197.84758999  .00030199  00000+0  34491-3 0  9995
2 54255  97.6240 343.2072 0003857 239.8267 120.2608 15.62146088204334
JILIN-1 GAOFEN 03D50    
1 54690U 22167J   26197.85813053  .00006068  00000+0  18075-3 0  9993
2 54690  97.6855   6.9298 0005063  16.0723 344.0679 15.35082240199904
JILIN-1 GAOFEN 03D47    
1 54692U 22167L   26197.86280302  .00005631  00000+0  17168-3 0  9998
2 54692  97.6952   8.6729 0007647  24.0075 336.1522 15.34362913199895
JILIN-1 GAOFEN 03D49    
1 54694U 22167N   26197.87442788  .00007196  00000+0  19438-3 0  9999
2 54694  97.6829   9.3489 0005906  44.2737 315.8979 15.38066499200051
JILIN-1 GAOFEN 03D48    
1 54695U 22167P   26197.84988009  .00006163  00000+0  17928-3 0  9993
2 54695  97.6901   8.6450 0006297  24.8259 335.3286 15.35813766199947
JILIN GAOFEN OBJECT A   
1 68691U 26080A   26197.65878194  .00002058  00000+0  13343-3 0  9990
2 68691  97.6611 273.1361 0011093 330.0407  30.0185 15.09207006 14109
JILIN GAOFEN OBJECT B   
1 68692U 26080B   26197.84002434  .00002395  00000+0  15564-3 0  9999
2 68692  97.6586 273.3294 0015706 307.3404  52.6393 15.08908309 14134
JILIN GAOFEN OBJECT C   
1 68693U 26080C   26197.52517554  .00002068  00000+0  13505-3 0  9999
2 68693  97.6595 272.9856 0013204 310.6516  49.3564 15.08905559 14087
JILIN GAOFEN OBJECT D   
1 68694U 26080D   26197.84078971  .00002394  00000+0  15528-3 0  9999
2 68694  97.6649 273.4054 0016382 319.2476  40.7525 15.08967355 14112
JILIN GAOFEN OBJECT E   
1 68695U 26080E   26197.82252084  .00002934  00000+0  18970-3 0  9991
2 68695  97.6633 273.4071 0013749 329.9113  30.1324 15.08929244 14097
JILIN GAOFEN OBJECT F   
1 68696U 26080F   26197.82155942  .00002852  00000+0  18467-3 0  9997
2 68696  97.6604 273.3738 0012399 332.8151  27.2427 15.08913064 14094
JILIN GAOFEN OBJECT G   
1 68697U 26080G   26197.87396149  .00002599  00000+0  16861-3 0  9993
2 68697  97.6652 273.5115 0014542 329.2320  30.8055 15.08906992 14100
JILIN GAOFEN OBJECT H   
1 68698U 26080H   26197.60665016  .00002409  00000+0  15644-3 0  9995
2 68698  97.6646 273.2350 0014947 332.1698  27.8729 15.08933633 14063
