{"fetched_at":"2026-07-17T06:38:21.743Z","source":"https://celestrak.org/NORAD/elements/gp.php?NAME=JILIN&FORMAT=JSON","constellation":"jilin-1-gaofen","records":[{"OBJECT_NAME":"JILIN-1 GAOFEN 03D51","OBJECT_ID":"2022-155B","EPOCH":"2026-07-16T20:33:02.661984","CLASSIFICATION_TYPE":"U","MEAN_MOTION":15.64993908,"ECCENTRICITY":0.0004488,"INCLINATION":97.6265,"RA_OF_ASC_NODE":345.0139,"ARG_OF_PERICENTER":225.5152,"MEAN_ANOMALY":134.574,"EPHEMERIS_TYPE":0,"NORAD_CAT_ID":54252,"ELEMENT_SET_NO":999,"REV_AT_EPOCH":20438,"BSTAR":0.00037465,"MEAN_MOTION_DOT":0.00036719,"MEAN_MOTION_DDOT":0},{"OBJECT_NAME":"JILIN-1 GAOFEN 03D53","OBJECT_ID":"2022-155C","EPOCH":"2026-07-16T20:18:05.078304","CLASSIFICATION_TYPE":"U","MEAN_MOTION":15.544934,"ECCENTRICITY":0.0004961,"INCLINATION":97.6256,"RA_OF_ASC_NODE":340.1765,"ARG_OF_PERICENTER":243.3431,"MEAN_ANOMALY":116.7315,"EPHEMERIS_TYPE":0,"NORAD_CAT_ID":54253,"ELEMENT_SET_NO":999,"REV_AT_EPOCH":20409,"BSTAR":0.00031526,"MEAN_MOTION_DOT":0.00020676,"MEAN_MOTION_DDOT":0},{"OBJECT_NAME":"JILIN-1 GAOFEN 03D52","OBJECT_ID":"2022-155E","EPOCH":"2026-07-16T20:20:31.775136","CLASSIFICATION_TYPE":"U","MEAN_MOTION":15.62146088,"ECCENTRICITY":0.0003857,"INCLINATION":97.624,"RA_OF_ASC_NODE":343.2072,"ARG_OF_PERICENTER":239.8267,"MEAN_ANOMALY":120.2608,"EPHEMERIS_TYPE":0,"NORAD_CAT_ID":54255,"ELEMENT_SET_NO":999,"REV_AT_EPOCH":20433,"BSTAR":0.00034491,"MEAN_MOTION_DOT":0.00030199,"MEAN_MOTION_DDOT":0},{"OBJECT_NAME":"JILIN-1 GAOFEN 03D50","OBJECT_ID":"2022-167J","EPOCH":"2026-07-16T20:35:42.477792","CLASSIFICATION_TYPE":"U","MEAN_MOTION":15.3508224,"ECCENTRICITY":0.0005063,"INCLINATION":97.6855,"RA_OF_ASC_NODE":6.9298,"ARG_OF_PERICENTER":16.0723,"MEAN_ANOMALY":344.0679,"EPHEMERIS_TYPE":0,"NORAD_CAT_ID":54690,"ELEMENT_SET_NO":999,"REV_AT_EPOCH":19990,"BSTAR":0.00018075,"MEAN_MOTION_DOT":0.00006068,"MEAN_MOTION_DDOT":0},{"OBJECT_NAME":"JILIN-1 GAOFEN 03D47","OBJECT_ID":"2022-167L","EPOCH":"2026-07-16T20:42:26.180928","CLASSIFICATION_TYPE":"U","MEAN_MOTION":15.34362913,"ECCENTRICITY":0.0007647,"INCLINATION":97.6952,"RA_OF_ASC_NODE":8.6729,"ARG_OF_PERICENTER":24.0075,"MEAN_ANOMALY":336.1522,"EPHEMERIS_TYPE":0,"NORAD_CAT_ID":54692,"ELEMENT_SET_NO":999,"REV_AT_EPOCH":19989,"BSTAR":0.00017168,"MEAN_MOTION_DOT":0.00005631,"MEAN_MOTION_DDOT":0},{"OBJECT_NAME":"JILIN-1 GAOFEN 03D49","OBJECT_ID":"2022-167N","EPOCH":"2026-07-16T20:59:10.568832","CLASSIFICATION_TYPE":"U","MEAN_MOTION":15.38066499,"ECCENTRICITY":0.0005906,"INCLINATION":97.6829,"RA_OF_ASC_NODE":9.3489,"ARG_OF_PERICENTER":44.2737,"MEAN_ANOMALY":315.8979,"EPHEMERIS_TYPE":0,"NORAD_CAT_ID":54694,"ELEMENT_SET_NO":999,"REV_AT_EPOCH":20005,"BSTAR":0.00019438,"MEAN_MOTION_DOT":0.00007196,"MEAN_MOTION_DDOT":0},{"OBJECT_NAME":"JILIN-1 GAOFEN 03D48","OBJECT_ID":"2022-167P","EPOCH":"2026-07-16T20:23:49.639776","CLASSIFICATION_TYPE":"U","MEAN_MOTION":15.35813766,"ECCENTRICITY":0.0006297,"INCLINATION":97.6901,"RA_OF_ASC_NODE":8.645,"ARG_OF_PERICENTER":24.8259,"MEAN_ANOMALY":335.3286,"EPHEMERIS_TYPE":0,"NORAD_CAT_ID":54695,"ELEMENT_SET_NO":999,"REV_AT_EPOCH":19994,"BSTAR":0.00017928,"MEAN_MOTION_DOT":0.00006163,"MEAN_MOTION_DDOT":0},{"OBJECT_NAME":"JILIN GAOFEN OBJECT A","OBJECT_ID":"2026-080A","EPOCH":"2026-07-16T15:48:38.759616","CLASSIFICATION_TYPE":"U","MEAN_MOTION":15.09207006,"ECCENTRICITY":0.0011093,"INCLINATION":97.6611,"RA_OF_ASC_NODE":273.1361,"ARG_OF_PERICENTER":330.0407,"MEAN_ANOMALY":30.0185,"EPHEMERIS_TYPE":0,"NORAD_CAT_ID":68691,"ELEMENT_SET_NO":999,"REV_AT_EPOCH":1410,"BSTAR":0.00013343,"MEAN_MOTION_DOT":0.00002058,"MEAN_MOTION_DDOT":0},{"OBJECT_NAME":"JILIN GAOFEN OBJECT B","OBJECT_ID":"2026-080B","EPOCH":"2026-07-16T20:09:38.102976","CLASSIFICATION_TYPE":"U","MEAN_MOTION":15.08908309,"ECCENTRICITY":0.0015706,"INCLINATION":97.6586,"RA_OF_ASC_NODE":273.3294,"ARG_OF_PERICENTER":307.3404,"MEAN_ANOMALY":52.6393,"EPHEMERIS_TYPE":0,"NORAD_CAT_ID":68692,"ELEMENT_SET_NO":999,"REV_AT_EPOCH":1413,"BSTAR":0.00015564,"MEAN_MOTION_DOT":0.00002395,"MEAN_MOTION_DDOT":0},{"OBJECT_NAME":"JILIN GAOFEN OBJECT C","OBJECT_ID":"2026-080C","EPOCH":"2026-07-16T12:36:15.166656","CLASSIFICATION_TYPE":"U","MEAN_MOTION":15.08905559,"ECCENTRICITY":0.0013204,"INCLINATION":97.6595,"RA_OF_ASC_NODE":272.9856,"ARG_OF_PERICENTER":310.6516,"MEAN_ANOMALY":49.3564,"EPHEMERIS_TYPE":0,"NORAD_CAT_ID":68693,"ELEMENT_SET_NO":999,"REV_AT_EPOCH":1408,"BSTAR":0.00013505,"MEAN_MOTION_DOT":0.00002068,"MEAN_MOTION_DDOT":0},{"OBJECT_NAME":"JILIN GAOFEN OBJECT D","OBJECT_ID":"2026-080D","EPOCH":"2026-07-16T20:10:44.230944","CLASSIFICATION_TYPE":"U","MEAN_MOTION":15.08967355,"ECCENTRICITY":0.0016382,"INCLINATION":97.6649,"RA_OF_ASC_NODE":273.4054,"ARG_OF_PERICENTER":319.2476,"MEAN_ANOMALY":40.7525,"EPHEMERIS_TYPE":0,"NORAD_CAT_ID":68694,"ELEMENT_SET_NO":999,"REV_AT_EPOCH":1411,"BSTAR":0.00015528,"MEAN_MOTION_DOT":0.00002394,"MEAN_MOTION_DDOT":0},{"OBJECT_NAME":"JILIN GAOFEN OBJECT E","OBJECT_ID":"2026-080E","EPOCH":"2026-07-16T19:44:25.800576","CLASSIFICATION_TYPE":"U","MEAN_MOTION":15.08929244,"ECCENTRICITY":0.0013749,"INCLINATION":97.6633,"RA_OF_ASC_NODE":273.4071,"ARG_OF_PERICENTER":329.9113,"MEAN_ANOMALY":30.1324,"EPHEMERIS_TYPE":0,"NORAD_CAT_ID":68695,"ELEMENT_SET_NO":999,"REV_AT_EPOCH":1409,"BSTAR":0.0001897,"MEAN_MOTION_DOT":0.00002934,"MEAN_MOTION_DDOT":0},{"OBJECT_NAME":"JILIN GAOFEN OBJECT F","OBJECT_ID":"2026-080F","EPOCH":"2026-07-16T19:43:02.733888","CLASSIFICATION_TYPE":"U","MEAN_MOTION":15.08913064,"ECCENTRICITY":0.0012399,"INCLINATION":97.6604,"RA_OF_ASC_NODE":273.3738,"ARG_OF_PERICENTER":332.8151,"MEAN_ANOMALY":27.2427,"EPHEMERIS_TYPE":0,"NORAD_CAT_ID":68696,"ELEMENT_SET_NO":999,"REV_AT_EPOCH":1409,"BSTAR":0.00018467,"MEAN_MOTION_DOT":0.00002852,"MEAN_MOTION_DDOT":0},{"OBJECT_NAME":"JILIN GAOFEN OBJECT G","OBJECT_ID":"2026-080G","EPOCH":"2026-07-16T20:58:30.272736","CLASSIFICATION_TYPE":"U","MEAN_MOTION":15.08906992,"ECCENTRICITY":0.0014542,"INCLINATION":97.6652,"RA_OF_ASC_NODE":273.5115,"ARG_OF_PERICENTER":329.232,"MEAN_ANOMALY":30.8055,"EPHEMERIS_TYPE":0,"NORAD_CAT_ID":68697,"ELEMENT_SET_NO":999,"REV_AT_EPOCH":1410,"BSTAR":0.00016861,"MEAN_MOTION_DOT":0.00002599,"MEAN_MOTION_DDOT":0},{"OBJECT_NAME":"JILIN GAOFEN OBJECT H","OBJECT_ID":"2026-080H","EPOCH":"2026-07-16T14:33:34.573824","CLASSIFICATION_TYPE":"U","MEAN_MOTION":15.08933633,"ECCENTRICITY":0.0014947,"INCLINATION":97.6646,"RA_OF_ASC_NODE":273.235,"ARG_OF_PERICENTER":332.1698,"MEAN_ANOMALY":27.8729,"EPHEMERIS_TYPE":0,"NORAD_CAT_ID":68698,"ELEMENT_SET_NO":999,"REV_AT_EPOCH":1406,"BSTAR":0.00015644,"MEAN_MOTION_DOT":0.00002409,"MEAN_MOTION_DDOT":0}]}
